     2.100          NAVIGATION                              RINEX VERSION / TYPE
fic2rin                                 02/20/2011 00:09:05 PGM / RUN BY / DATE
                                                            END OF HEADER
 8 11  2 19  1 59 44.0  .741891562939D-05  .113686837722D-12  .000000000000D+00
     .520000000000D+02  .112781250000D+03  .380301555372D-08  .246556562221D+01
     .588223338127D-05  .114333825186D-01  .913813710213D-05  .515362043953D+04
     .525584000000D+06 -.283122062683D-06 -.217598005654D+01  .115483999252D-06
     .995468377802D+00  .224125000000D+03 -.308606897303D+01 -.774210820417D-08
     .522878922863D-09  .100000000000D+01  .162300000000D+04  .000000000000D+00
     .240000000000D+01  .000000000000D+00 -.465661287308D-08  .520000000000D+02
     .518406000000D+06  .400000000000D+01
24 11  2 19  1 59 44.0  .366653781384D-03  .329691829393D-11  .000000000000D+00
     .200000000000D+01  .739687500000D+02  .473984029052D-08 -.222751806214D+01
     .390410423279D-05  .586912722792D-02  .104680657387D-04  .515372814178D+04
     .525584000000D+06 -.104308128357D-06  .938250035389D+00 -.316649675369D-07
     .948568540807D+00  .173375000000D+03 -.309504842565D+00 -.817426906255D-08
     .698243370353D-09  .100000000000D+01  .162300000000D+04  .000000000000D+00
     .240000000000D+01  .000000000000D+00 -.139698386192D-08  .200000000000D+01
     .518406000000D+06  .400000000000D+01
31 11  2 19  1 59 44.0  .433339737356D-04  .466116034659D-11  .000000000000D+00
     .150000000000D+02  .122031250000D+03  .410409952365D-08  .303186303057D+01
     .649504363537D-05  .789095577784D-02  .106599181890D-04  .515360680199D+04
     .525584000000D+06  .113621354103D-06 -.224863051258D+01  .156462192535D-06
     .979096130118D+00  .182281250000D+03 -.994674754985D+00 -.785675583685D-08
     .563594904561D-09  .100000000000D+01  .162300000000D+04  .000000000000D+00
     .240000000000D+01  .000000000000D+00 -.130385160446D-07  .150000000000D+02
     .518406000000D+06  .400000000000D+01
 1 11  2 19  2  0  0.0 -.209471210837D-03 -.295585778076D-11  .000000000000D+00
     .870000000000D+02 -.215625000000D+02  .505913930489D-08  .131908214507D+00
    -.989064574242D-06  .448284961749D-02  .136345624924D-05  .515355989265D+04
     .525600000000D+06 -.298023223877D-07 -.121051325245D+01  .465661287308D-07
     .967550846468D+00  .353375000000D+03  .879281301253D+00 -.877715131787D-08
    -.174292974288D-09  .100000000000D+01  .162300000000D+04  .000000000000D+00
     .240000000000D+01  .630000000000D+02 -.195577740669D-07  .870000000000D+02
     .518406000000D+06  .400000000000D+01
 2 11  2 19  2  0  0.0  .321104191244D-03  .204636307899D-11  .000000000000D+00
     .270000000000D+02  .762812500000D+02  .490984737199D-08 -.157801611864D+01
     .390782952309D-05  .100120065035D-01  .103246420622D-04  .515371399879D+04
     .525600000000D+06 -.124797224998D-06  .868580848404D+00 -.134110450745D-06
     .939330360891D+00  .171531250000D+03 -.307932448913D+01 -.818748389871D-08
     .762174604774D-09  .100000000000D+01  .162300000000D+04  .000000000000D+00
     .240000000000D+01  .000000000000D+00 -.172294676304D-07  .270000000000D+02
     .518406000000D+06  .400000000000D+01
 3 11  2 19  2  0  0.0  .677896197885D-03  .500222085975D-11  .000000000000D+00
     .970000000000D+02 -.126031250000D+03  .506556814410D-08 -.160833920078D+01
    -.647827982903D-05  .139728965005D-01  .100340694189D-04  .515364995384D+04
     .525600000000D+06  .393018126488D-06 -.287302168523D+00  .186264514923D-07
     .928742580531D+00  .165156250000D+03  .107283306979D+01 -.831748931396D-08
    -.531450708484D-09  .100000000000D+01  .162300000000D+04  .000000000000D+00
     .340000000000D+01  .000000000000D+00 -.419095158577D-08  .970000000000D+02
     .518406000000D+06  .400000000000D+01
 4 11  2 19  2  0  0.0  .394671224058D-04  .102318153949D-10  .000000000000D+00
     .280000000000D+02  .750937500000D+02  .499520807047D-08  .143190503522D+01
     .401772558689D-05  .961639487650D-02  .106710940599D-04  .515360284042D+04
     .525600000000D+06 -.167638063431D-06  .886092982838D+00  .428408384323D-07
     .938412205709D+00  .166093750000D+03  .709625117500D+00 -.839999275056D-08
     .500020827875D-09  .100000000000D+01  .162300000000D+04  .000000000000D+00
     .240000000000D+01  .000000000000D+00 -.605359673500D-08  .280000000000D+02
     .518406000000D+06  .400000000000D+01
 5 11  2 19  2  0  0.0 -.116934068501D-03 -.591171556152D-11  .000000000000D+00
     .980000000000D+02 -.220000000000D+02  .523521806785D-08  .129684069931D+00
    -.105984508991D-05  .226350571029D-02  .289082527161D-05  .515360850143D+04
     .525600000000D+06  .223517417908D-07  .193031522247D+01 -.223517417908D-07
     .954763346411D+00  .318750000000D+03  .278433059432D+00 -.865893210785D-08
    -.989326923723D-10  .100000000000D+01  .162300000000D+04  .000000000000D+00
     .240000000000D+01  .000000000000D+00 -.977888703346D-08  .980000000000D+02
     .518406000000D+06  .400000000000D+01
 6 11  2 19  2  0  0.0 -.839494168758D-04 -.170530256582D-10  .000000000000D+00
     .290000000000D+02 -.126687500000D+03  .492520515456D-08  .483495656975D+00
    -.672787427902D-05  .647389737424D-02  .113099813461D-04  .515366223145D+04
     .525600000000D+06  .800937414169D-07 -.214495566464D+00 -.102445483208D-06
     .935970987497D+00  .151187500000D+03 -.859248867644D+00 -.845678083029D-08
    -.555380276675D-09  .100000000000D+01  .162300000000D+04  .000000000000D+00
     .240000000000D+01  .000000000000D+00 -.465661287308D-08  .290000000000D+02
     .518406000000D+06  .400000000000D+01
 7 11  2 19  2  0  0.0  .392412766814D-05  .795807864051D-12  .000000000000D+00
     .800000000000D+02  .113656250000D+03  .420624663563D-08  .299469798005D+01
     .597164034843D-05  .417607324198D-02  .960007309914D-05  .515367736053D+04
     .525600000000D+06 -.912696123123D-07 -.224944676235D+01 -.502914190292D-07
     .973916874930D+00  .203468750000D+03 -.309907801594D+01 -.791532970525D-08
     .516807241382D-09  .100000000000D+01  .162300000000D+04  .000000000000D+00
     .240000000000D+01  .000000000000D+00 -.107102096081D-07  .800000000000D+02
     .518406000000D+06  .400000000000D+01
 9 11  2 19  2  0  0.0  .626868568361D-04  .238742359215D-11  .000000000000D+00
     .170000000000D+02  .130093750000D+03  .390409119250D-08  .233637206871D+01
     .652857124805D-05  .170154132647D-01  .102743506432D-04  .515368234253D+04
     .525600000000D+06  .232830643654D-06 -.227861705480D+01 -.614672899246D-07
     .982907466201D+00  .187312500000D+03  .155765276857D+01 -.758603027432D-08
     .484305887570D-09  .100000000000D+01  .162300000000D+04  .000000000000D+00
     .340000000000D+01  .000000000000D+00 -.558793544769D-08  .170000000000D+02
     .518406000000D+06  .400000000000D+01
10 11  2 19  2  0  0.0 -.666221603751D-04 -.102318153949D-11  .000000000000D+00
     .630000000000D+02 -.155937500000D+02  .538236705433D-08  .394006128782D+00
    -.772997736931D-06  .100761307403D-01  .296533107758D-05  .515356840324D+04
     .525600000000D+06 -.558793544769D-08  .195457170476D+01  .113621354103D-06
     .949735746089D+00  .316250000000D+03  .696601261084D+00 -.885536886166D-08
    -.178221709364D-09  .100000000000D+01  .162300000000D+04  .000000000000D+00
     .340000000000D+01  .000000000000D+00 -.279396772385D-08  .630000000000D+02
     .518406000000D+06  .400000000000D+01
11 11  2 19  2  0  0.0 -.128291547298D-03 -.295585778076D-11  .000000000000D+00
     .930000000000D+02  .380000000000D+02  .581845664779D-08  .308663068530D+01
     .196136534214D-05  .116352901096D-01  .125952064991D-04  .515350377274D+04
     .525600000000D+06  .521540641785D-07  .636340066621D+00 -.143423676491D-06
     .888357280127D+00  .961562500000D+02  .910995400512D+00 -.844106588999D-08
     .487520307178D-09  .100000000000D+01  .162300000000D+04  .000000000000D+00
     .240000000000D+01  .000000000000D+00 -.116415321827D-07  .930000000000D+02
     .518406000000D+06  .400000000000D+01
12 11  2 19  2  0  0.0 -.257152132690D-04  .329691829393D-11  .000000000000D+00
     .750000000000D+02 -.287812500000D+02  .477448459073D-08  .309619082130D+01
    -.150129199028D-05  .362207624130D-02  .164471566677D-05  .515379561043D+04
     .525600000000D+06 -.115483999252D-06 -.119440290660D+01 -.558793544769D-08
     .973684866363D+00  .352750000000D+03 -.281887396690D+00 -.848535344903D-08
    -.166792661870D-09  .100000000000D+01  .162300000000D+04  .000000000000D+00
     .240000000000D+01  .000000000000D+00 -.121071934700D-07  .750000000000D+02
     .518406000000D+06  .400000000000D+01
13 11  2 19  2  0  0.0  .281936023384D-03 -.136424205266D-11  .000000000000D+00
     .600000000000D+02 -.387187500000D+02  .372229790579D-08 -.761788113887D+00
    -.209733843803D-05  .451628130395D-02  .132061541080D-04  .515364348030D+04
     .525600000000D+06 -.763684511185D-07  .305783801150D+01  .298023223877D-07
     .990944758610D+00  .146343750000D+03  .178819771816D+01 -.763710383031D-08
    -.370372570361D-09  .100000000000D+01  .162300000000D+04  .000000000000D+00
     .240000000000D+01  .000000000000D+00 -.111758708954D-07  .600000000000D+02
     .518406000000D+06  .400000000000D+01
14 11  2 19  2  0  0.0  .132362358272D-03  .261479726760D-11  .000000000000D+00
     .190000000000D+02 -.432500000000D+02  .388587614805D-08 -.798792733495D+00
    -.217556953430D-05  .560990406666D-02  .139437615871D-04  .515363830376D+04
     .525600000000D+06 -.931322574615D-08  .303430019650D+01  .856816768646D-07
     .984022571118D+00  .123875000000D+03 -.208315703690D+01 -.773889378456D-08
    -.521807449660D-09  .100000000000D+01  .162300000000D+04  .000000000000D+00
     .240000000000D+01  .000000000000D+00 -.884756445885D-08  .190000000000D+02
     .518406000000D+06  .400000000000D+01
